*******************************************************************************
Ephemeris / WWW_USER Mon Mar 10 07:36:49 2025 Pasadena, USA      / Horizons    
*******************************************************************************
Target body name: Lemmon (C/2018 EF9)             {source: JPL#18}
Center body name: Earth (399)                     {source: DE441}
Center-site name: Mauna Kea
*******************************************************************************
Start time      : A.D. 2018-Aug-04 05:07:00.0000 UT      
Stop  time      : A.D. 2018-Aug-04 15:49:00.0000 UT      
Step-size       : 1 minutes
*******************************************************************************
Target pole/equ : undefined
Target radii    : undefined                                                    
Center geodetic : 204.5278, 19.8260847, 4.21024   {E-lon(deg),Lat(deg),Alt(km)}
Center cylindric: 204.5278, 6006.35451, 2151.0229 {E-lon(deg),Dxy(km),Dz(km)}
Center pole/equ : ITRF93                          {East-longitude positive}
Center radii    : 6378.137, 6378.137, 6356.752 km {Equator_a, b, pole_c}       
Target primary  : Sun
Vis. interferer : MOON (R_eq= 1737.400) km        {source: DE441}
Rel. light bend : Sun                             {source: DE441}
Rel. lght bnd GM: 1.3271E+11 km^3/s^2                                          
Small-body perts: Yes                             {source: SB441-N16}
Atmos refraction: NO (AIRLESS)
RA format       : HMS
Time format     : CAL 
Calendar mode   : Mixed Julian/Gregorian
RTS-only print  : NO       
EOP file        : eop.250307.p250603                                           
EOP coverage    : DATA-BASED 1962-JAN-20 TO 2025-MAR-07. PREDICTS-> 2025-JUN-02
Units conversion: 1 au= 149597870.700 km, c= 299792.458 km/s, 1 day= 86400.0 s 
Table cut-offs 1: Elevation (-90.0deg=NO ),Airmass (>38.000=NO), Daylight (YES)
Table cut-offs 2: Solar elongation (  0.0,180.0=NO ),Local Hour Angle( 0.0=NO )
Table cut-offs 3: RA/DEC angular rate (     0.0=NO )                           
*******************************************************************************
Initial IAU76/J2000 heliocentric ecliptic osculating elements (au, days, deg.):
  EPOCH=  2458226.5 ! 2018-Apr-18.0000000 (TDB)    RMSW= n.a.                  
   EC= .9975741722198472   QR= 1.55663257903246    TP= 2458261.6283815675      
   OM= 172.5780664128357   W= 72.61657512148747    IN= 84.69445280104227       
  Equivalent ICRF heliocentric cartesian coordinates (au, au/d):
   X=-1.091857230976521E+00  Y=-4.544188696153424E-01  Z= 1.120998862172552E+00
  VX= 1.630642470498751E-02 VY=-6.481787118028984E-03 VZ= 7.403953065693920E-03
Comet physical (GM= km^3/s^2; RAD= km):                                        
   GM= n.a.                RAD= n.a.                                           
   M1=  8.6      M2=  17.8     k1=  45.25  k2=  5.      PHCOF=  .030           
*******************************************************************************
 Date__(UT)__HR:MN     R.A._________(ICRF)_________DEC
******************************************************
$$SOE
 2018-Aug-04 07:12     21 10 29.520702 +80 41 31.06714
 2018-Aug-04 07:13     21 10 29.334727 +80 41 30.01664
 2018-Aug-04 07:14     21 10 29.148732 +80 41 28.96605
 2018-Aug-04 07:15     21 10 28.962716 +80 41 27.91538
 2018-Aug-04 07:16     21 10 28.776681 +80 41 26.86463
 2018-Aug-04 07:17     21 10 28.590626 +80 41 25.81380
 2018-Aug-04 07:18     21 10 28.404551 +80 41 24.76289
 2018-Aug-04 07:19     21 10 28.218456 +80 41 23.71189
 2018-Aug-04 07:20     21 10 28.032342 +80 41 22.66081
 2018-Aug-04 07:21     21 10 27.846209 +80 41 21.60965
 2018-Aug-04 07:22     21 10 27.660056 +80 41 20.55840
 2018-Aug-04 07:23     21 10 27.473884 +80 41 19.50707
 2018-Aug-04 07:24     21 10 27.287692 +80 41 18.45566
 2018-Aug-04 07:25     21 10 27.101482 +80 41 17.40416
 2018-Aug-04 07:26     21 10 26.915253 +80 41 16.35258
 2018-Aug-04 07:27     21 10 26.729005 +80 41 15.30091
 2018-Aug-04 07:28     21 10 26.542739 +80 41 14.24915
 2018-Aug-04 07:29     21 10 26.356454 +80 41 13.19731
 2018-Aug-04 07:30     21 10 26.170150 +80 41 12.14539
 2018-Aug-04 07:31     21 10 25.983828 +80 41 11.09338
 2018-Aug-04 07:32     21 10 25.797489 +80 41 10.04128
 2018-Aug-04 07:33     21 10 25.611131 +80 41 08.98909
 2018-Aug-04 07:34     21 10 25.424755 +80 41 07.93682
 2018-Aug-04 07:35     21 10 25.238361 +80 41 06.88446
 2018-Aug-04 07:36     21 10 25.051949 +80 41 05.83201
 2018-Aug-04 07:37     21 10 24.865520 +80 41 04.77947
 2018-Aug-04 07:38     21 10 24.679074 +80 41 03.72684
 2018-Aug-04 07:39     21 10 24.492610 +80 41 02.67413
 2018-Aug-04 07:40     21 10 24.306129 +80 41 01.62133
 2018-Aug-04 07:41     21 10 24.119630 +80 41 00.56843
 2018-Aug-04 07:42     21 10 23.933115 +80 40 59.51545
 2018-Aug-04 07:43     21 10 23.746583 +80 40 58.46238
 2018-Aug-04 07:44     21 10 23.560034 +80 40 57.40922
 2018-Aug-04 07:45     21 10 23.373469 +80 40 56.35596
 2018-Aug-04 07:46     21 10 23.186887 +80 40 55.30262
 2018-Aug-04 07:47     21 10 23.000288 +80 40 54.24918
 2018-Aug-04 07:48     21 10 22.813674 +80 40 53.19566
 2018-Aug-04 07:49     21 10 22.627043 +80 40 52.14204
 2018-Aug-04 07:50     21 10 22.440396 +80 40 51.08833
 2018-Aug-04 07:51     21 10 22.253734 +80 40 50.03453
 2018-Aug-04 07:52     21 10 22.067055 +80 40 48.98063
 2018-Aug-04 07:53     21 10 21.880361 +80 40 47.92664
 2018-Aug-04 07:54     21 10 21.693652 +80 40 46.87256
 2018-Aug-04 07:55     21 10 21.506927 +80 40 45.81839
 2018-Aug-04 07:56     21 10 21.320187 +80 40 44.76412
 2018-Aug-04 07:57     21 10 21.133432 +80 40 43.70976
 2018-Aug-04 07:58     21 10 20.946662 +80 40 42.65531
 2018-Aug-04 07:59     21 10 20.759877 +80 40 41.60076
 2018-Aug-04 08:00     21 10 20.573077 +80 40 40.54611
 2018-Aug-04 08:01     21 10 20.386263 +80 40 39.49137
 2018-Aug-04 08:02     21 10 20.199434 +80 40 38.43654
 2018-Aug-04 08:03     21 10 20.012591 +80 40 37.38161
 2018-Aug-04 08:04     21 10 19.825734 +80 40 36.32658
 2018-Aug-04 08:05     21 10 19.638863 +80 40 35.27146
 2018-Aug-04 08:06     21 10 19.451977 +80 40 34.21624
 2018-Aug-04 08:07     21 10 19.265078 +80 40 33.16093
 2018-Aug-04 08:08     21 10 19.078166 +80 40 32.10552
 2018-Aug-04 08:09     21 10 18.891240 +80 40 31.05001
 2018-Aug-04 08:10     21 10 18.704300 +80 40 29.99440
 2018-Aug-04 08:11     21 10 18.517347 +80 40 28.93870
 2018-Aug-04 08:12     21 10 18.330381 +80 40 27.88290
 2018-Aug-04 08:13     21 10 18.143403 +80 40 26.82700
 2018-Aug-04 08:14     21 10 17.956411 +80 40 25.77101
 2018-Aug-04 08:15     21 10 17.769407 +80 40 24.71491
 2018-Aug-04 08:16     21 10 17.582390 +80 40 23.65872
 2018-Aug-04 08:17     21 10 17.395360 +80 40 22.60242
 2018-Aug-04 08:18     21 10 17.208319 +80 40 21.54603
 2018-Aug-04 08:19     21 10 17.021265 +80 40 20.48954
 2018-Aug-04 08:20     21 10 16.834199 +80 40 19.43295
 2018-Aug-04 08:21     21 10 16.647121 +80 40 18.37625
 2018-Aug-04 08:22     21 10 16.460032 +80 40 17.31946
 2018-Aug-04 08:23     21 10 16.272931 +80 40 16.26257
 2018-Aug-04 08:24     21 10 16.085819 +80 40 15.20558
 2018-Aug-04 08:25     21 10 15.898695 +80 40 14.14848
 2018-Aug-04 08:26     21 10 15.711560 +80 40 13.09129
 2018-Aug-04 08:27     21 10 15.524414 +80 40 12.03399
 2018-Aug-04 08:28     21 10 15.337257 +80 40 10.97659
 2018-Aug-04 08:29     21 10 15.150090 +80 40 09.91909
 2018-Aug-04 08:30     21 10 14.962912 +80 40 08.86149
 2018-Aug-04 08:31     21 10 14.775723 +80 40 07.80379
 2018-Aug-04 08:32     21 10 14.588524 +80 40 06.74598
 2018-Aug-04 08:33     21 10 14.401315 +80 40 05.68807
 2018-Aug-04 08:34     21 10 14.214097 +80 40 04.63006
 2018-Aug-04 08:35     21 10 14.026868 +80 40 03.57195
 2018-Aug-04 08:36     21 10 13.839629 +80 40 02.51373
 2018-Aug-04 08:37     21 10 13.652381 +80 40 01.45541
 2018-Aug-04 08:38     21 10 13.465124 +80 40 00.39698
 2018-Aug-04 08:39     21 10 13.277857 +80 39 59.33845
 2018-Aug-04 08:40     21 10 13.090581 +80 39 58.27982
 2018-Aug-04 08:41     21 10 12.903296 +80 39 57.22108
 2018-Aug-04 08:42     21 10 12.716002 +80 39 56.16223
 2018-Aug-04 08:43     21 10 12.528700 +80 39 55.10329
 2018-Aug-04 08:44     21 10 12.341389 +80 39 54.04423
 2018-Aug-04 08:45     21 10 12.154070 +80 39 52.98508
 2018-Aug-04 08:46     21 10 11.966742 +80 39 51.92581
 2018-Aug-04 08:47     21 10 11.779406 +80 39 50.86644
 2018-Aug-04 08:48     21 10 11.592063 +80 39 49.80697
 2018-Aug-04 08:49     21 10 11.404711 +80 39 48.74739
 2018-Aug-04 08:50     21 10 11.217352 +80 39 47.68770
 2018-Aug-04 08:51     21 10 11.029986 +80 39 46.62791
 2018-Aug-04 08:52     21 10 10.842612 +80 39 45.56801
 2018-Aug-04 08:53     21 10 10.655231 +80 39 44.50800
 2018-Aug-04 08:54     21 10 10.467843 +80 39 43.44788
 2018-Aug-04 08:55     21 10 10.280448 +80 39 42.38766
 2018-Aug-04 08:56     21 10 10.093047 +80 39 41.32734
 2018-Aug-04 08:57     21 10 09.905639 +80 39 40.26690
 2018-Aug-04 08:58     21 10 09.718224 +80 39 39.20636
 2018-Aug-04 08:59     21 10 09.530803 +80 39 38.14570
 2018-Aug-04 09:00     21 10 09.343376 +80 39 37.08494
 2018-Aug-04 09:01     21 10 09.155943 +80 39 36.02408
 2018-Aug-04 09:02     21 10 08.968505 +80 39 34.96310
 2018-Aug-04 09:03     21 10 08.781060 +80 39 33.90202
 2018-Aug-04 09:04     21 10 08.593611 +80 39 32.84082
 2018-Aug-04 09:05     21 10 08.406156 +80 39 31.77952
 2018-Aug-04 09:06     21 10 08.218695 +80 39 30.71811
 2018-Aug-04 09:07     21 10 08.031230 +80 39 29.65659
 2018-Aug-04 09:08     21 10 07.843760 +80 39 28.59496
 2018-Aug-04 09:09     21 10 07.656285 +80 39 27.53322
 2018-Aug-04 09:10     21 10 07.468806 +80 39 26.47137
 2018-Aug-04 09:11     21 10 07.281322 +80 39 25.40941
 2018-Aug-04 09:12     21 10 07.093834 +80 39 24.34734
 2018-Aug-04 09:13     21 10 06.906342 +80 39 23.28516
 2018-Aug-04 09:14     21 10 06.718846 +80 39 22.22287
 2018-Aug-04 09:15     21 10 06.531346 +80 39 21.16047
 2018-Aug-04 09:16     21 10 06.343843 +80 39 20.09796
